NORAD_CAT_ID,OBJECT_NAME,OBJECT_TYPE,EPOCH,MEAN_MOTION,ECCENTRICITY,INCLINATION,RA_OF_ASC_NODE,ARG_OF_PERICENTER,MEAN_ANOMALY,BSTAR,MEAN_MOTION_DOT,MEAN_MOTION_DDOT,TLE_LINE0,TLE_LINE1,TLE_LINE2,SEMIMAJOR_AXIS,PERIOD,APOGEE,PERIGEE,DECAYED
53895.0,STARLINK-5032,PAYLOAD,2023-09-12 12:44:03,15.08838257,0.0001346,53.2165,85.4115,73.517,286.597,1.4721e-05,-5.4e-07,0.0,0 STARLINK-5032,1 53895U 22119K   23255.53059122 -.00000054  00000-0  14721-4 0  9998,2 53895  53.2165  85.4115 0001346  73.5170 286.5970 15.08838257 54435,6917.886,95.438,540.682,538.82,0.0
53895.0,STARLINK-5032,PAYLOAD,2023-09-12 19:05:35,15.08842874,0.0001343,53.2164,84.2222,73.0253,287.0886,1.4856e-05,-5.1e-07,0.0,0 STARLINK-5032,1 53895U 22119K   23255.79554816 -.00000051  00000-0  14856-4 0  9992,2 53895  53.2164  84.2222 0001343  73.0253 287.0886 15.08842874 54470,6917.872,95.437,540.666,538.808,0.0
53895.0,STARLINK-5032,PAYLOAD,2023-09-12 22:16:21,15.08849639,0.0001287,53.2168,83.6264,77.4719,282.6417,4.6273e-05,4.49e-06,0.0,0 STARLINK-5032,1 53895U 22119K   23255.92802210  .00000449  00000-0  46273-4 0  9999,2 53895  53.2168  83.6264 0001287  77.4719 282.6417 15.08849639 54078,6917.851,95.437,540.606,538.826,0.0
53895.0,STARLINK-5032,PAYLOAD,2023-09-13 12:34:49,15.08839101,0.0001423,53.218,80.9498,80.7867,279.3286,2.6748e-05,1.38e-06,0.0,0 STARLINK-5032,1 53895U 22119K   23256.52418807  .00000138  00000-0  26748-4 0  9991,2 53895  53.2180  80.9498 0001423  80.7867 279.3286 15.08839101 54580,6917.883,95.438,540.733,538.764,0.0
53895.0,STARLINK-5032,PAYLOAD,2023-09-13 18:56:21,15.08843172,0.0001328,53.2172,79.7604,88.4089,271.7055,5.6689e-05,6.14e-06,0.0,0 STARLINK-5032,1 53895U 22119K   23256.78914326  .00000614  00000-0  56689-4 0  9992,2 53895  53.2172  79.7604 0001328  88.4089 271.7055 15.08843172 54203,6917.871,95.437,540.654,538.817,0.0
53895.0,STARLINK-5032,PAYLOAD,2023-09-14 12:25:38,15.08829549,0.0001215,53.2182,76.4893,79.9776,280.1353,-0.00014618,-2.613e-05,0.0,0 STARLINK-5032,1 53895U 22119K   23257.51780094 -.00002613  00000-0 -14618-3 0  9995,2 53895  53.2182  76.4893 0001215  79.9776 280.1353 15.08829549 54736,6917.912,95.438,540.618,538.937,0.0
53895.0,STARLINK-5032,PAYLOAD,2023-09-14 18:47:10,15.08828447,0.0001215,53.217,75.3001,83.1856,276.9275,-0.0001151,-2.119e-05,0.0,0 STARLINK-5032,1 53895U 22119K   23257.78276153 -.00002119  00000-0 -11510-3 0  9999,2 53895  53.2170  75.3001 0001215  83.1856 276.9275 15.08828447 54358,6917.916,95.438,540.621,538.94,0.0
53895.0,STARLINK-5032,PAYLOAD,2023-09-15 12:16:24,15.08836822,0.0001211,53.2173,72.0286,82.1214,277.9916,-2.1266e-05,-6.26e-06,0.0,0 STARLINK-5032,1 53895U 22119K   23258.51139529 -.00000626  00000-0 -21266-4 0  9997,2 53895  53.2173  72.0286 0001211  82.1214 277.9916 15.08836822 54880,6917.89,95.438,540.593,538.917,0.0
53895.0,STARLINK-5032,PAYLOAD,2023-09-15 18:37:56,15.08843672,0.0001193,53.2174,70.8397,81.8934,278.2193,3.689e-05,2.99e-06,0.0,0 STARLINK-5032,1 53895U 22119K   23258.77634905  .00000299  00000-0  36890-4 0  9996,2 53895  53.2174  70.8397 0001193  81.8934 278.2193 15.08843672 54505,6917.869,95.437,540.559,538.909,0.0
53895.0,STARLINK-5032,PAYLOAD,2023-09-16 10:31:48,15.08830336,0.0001193,53.2177,67.8676,75.0074,285.1051,9.6476e-05,1.248e-05,0.0,0 STARLINK-5032,1 53895U 22119K   23259.43875667  .00001248  00000-0  96476-4 0  9993,2 53895  53.2177  67.8676 0001193  75.0074 285.1051 15.08830336 54608,6917.91,95.438,540.6,538.95,0.0
53895.0,STARLINK-5032,PAYLOAD,2023-09-16 12:07:12,15.08827225,0.0001185,53.2172,67.5694,75.5248,284.5876,6.5753e-05,7.58e-06,0.0,0 STARLINK-5032,1 53895U 22119K   23259.50500051  .00000758  00000-0  65753-4 0  9992,2 53895  53.2172  67.5694 0001185  75.5248 284.5876 15.08827225 55038,6917.919,95.438,540.604,538.965,0.0
53895.0,STARLINK-5032,PAYLOAD,2023-09-17 10:22:36,15.08836187,0.0001153,53.2179,63.4065,85.0681,275.0443,-7.1836e-05,-1.431e-05,0.0,0 STARLINK-5032,1 53895U 22119K   23260.43236446 -.00001431  00000-0 -71836-4 0  9990,2 53895  53.2179  63.4065 0001153  85.0681 275.0443 15.08836187 55171,6917.892,95.438,540.555,538.959,0.0
53895.0,STARLINK-5032,PAYLOAD,2023-09-17 18:19:31,15.08841344,0.0001105,53.2185,61.9195,79.4082,280.7035,-2.0932e-05,-6.21e-06,0.0,0 STARLINK-5032,1 53895U 22119K   23260.76356063 -.00000621  00000-0 -20932-4 0  9995,2 53895  53.2185  61.9195 0001105  79.4082 280.7035 15.08841344 54804,6917.876,95.437,540.506,538.977,0.0
53895.0,STARLINK-5032,PAYLOAD,2023-09-18 11:48:46,15.08837355,9.47e-05,53.2189,58.6484,87.1758,272.9342,2.8023e-05,1.58e-06,0.0,0 STARLINK-5032,1 53895U 22119K   23261.49220142  .00000158  00000-0  28023-4 0  9996,2 53895  53.2189  58.6484 0000947  87.1758 272.9342 15.08837355 55331,6917.888,95.438,540.409,539.098,0.0
53895.0,STARLINK-5032,PAYLOAD,2023-09-18 18:10:17,15.08848508,0.0001195,53.2185,57.4588,75.0709,285.0415,0.00010593,1.399e-05,0.0,0 STARLINK-5032,1 53895U 22119K   23261.75715238  .00001399  00000-0  10593-3 0  9990,2 53895  53.2185  57.4588 0001195  75.0709 285.0415 15.08848508 55379,6917.854,95.437,540.546,538.893,0.0
53895.0,STARLINK-5032,PAYLOAD,2023-09-19 10:04:09,15.08839198,0.0001213,53.2187,54.4854,74.1166,285.996,7.5339e-05,9.11e-06,0.0,0 STARLINK-5032,1 53895U 22119K   23262.41955808  .00000911  00000-0  75339-4 0  9992,2 53895  53.2187  54.4854 0001213  74.1166 285.9960 15.08839198 55056,6917.883,95.438,540.587,538.909,0.0
53895.0,STARLINK-5032,PAYLOAD,2023-09-19 16:25:41,15.08844778,0.0001134,53.2188,53.2948,93.1892,266.923,9.0252e-05,1.149e-05,0.0,0 STARLINK-5032,1 53895U 22119K   23262.68451228  .00001149  00000-0  90252-4 0  9993,2 53895  53.2188  53.2948 0001134  93.1892 266.9230 15.08844778 55090,6917.866,95.437,540.515,538.946,0.0
53895.0,STARLINK-5032,PAYLOAD,2023-09-20 09:54:57,15.088345,0.0001287,53.2188,50.024,88.409,271.705,-8.8335e-05,-1.693e-05,0.0,0 STARLINK-5032,1 53895U 22119K   23263.41316721 -.00001693  00000-0 -88335-4 0  9998,2 53895  53.2188  50.0240 0001287  88.4090 271.7050 15.08834500 55205,6917.897,95.438,540.653,538.872,0.0
53895.0,STARLINK-5032,PAYLOAD,2023-09-20 14:41:07,15.08830639,0.0001073,53.2184,49.1317,93.8271,266.2844,-0.00011312,-2.087e-05,0.0,0 STARLINK-5032,1 53895U 22119K   23263.61189047 -.00002087  00000-0 -11312-3 0  9997,2 53895  53.2184  49.1317 0001073  93.8271 266.2844 15.08830639 55657,6917.909,95.438,540.516,539.032,0.0
53895.0,STARLINK-5032,PAYLOAD,2023-09-20 16:16:30,15.0883327,0.0001141,53.2182,48.8344,101.68,258.432,-0.00014855,-2.651e-05,0.0,0 STARLINK-5032,1 53895U 22119K   23263.67813023 -.00002651  00000-0 -14855-3 0  9993,2 53895  53.2182  48.8344 0001141 101.6800 258.4320 15.08833270 55660,6917.901,95.438,540.555,538.977,0.0
53895.0,STARLINK-5032,PAYLOAD,2023-09-21 09:45:44,15.08839383,9.67e-05,53.2174,45.5624,99.7945,260.3156,-2.0933e-05,-6.21e-06,0.0,0 STARLINK-5032,1 53895U 22119K   23264.40676242 -.00000621  00000-0 -20933-4 0  9995,2 53895  53.2174  45.5624 0000967  99.7945 260.3156 15.08839383 55354,6917.882,95.438,540.416,539.078,0.0
53895.0,STARLINK-5032,PAYLOAD,2023-09-21 12:56:30,15.08843027,9.68e-05,53.2175,44.9684,96.9797,263.1305,9.1848e-06,-1.42e-06,0.0,0 STARLINK-5032,1 53895U 22119K   23264.53923862 -.00000142  00000-0  91848-5 0  9993,2 53895  53.2175  44.9684 0000968  96.9797 263.1305 15.08843027 55794,6917.871,95.437,540.406,539.066,0.0
53895.0,STARLINK-5032,PAYLOAD,2023-09-21 16:07:15,15.08851343,0.0001047,53.2179,44.3735,101.5888,258.5222,3.3449e-05,2.45e-06,0.0,0 STARLINK-5032,1 53895U 22119K   23264.67171224  .00000245  00000-0  33449-4 0  9990,2 53895  53.2179  44.3735 0001047 101.5888 258.5222 15.08851343 55394,6917.846,95.437,540.435,538.986,0.0
53895.0,STARLINK-5032,PAYLOAD,2023-09-22 09:36:31,15.0883248,0.0001098,53.2184,41.103,106.8203,253.291,9.9266e-05,1.292e-05,0.0,0 STARLINK-5032,1 53895U 22119K   23265.40036097  .00001292  00000-0  99266-4 0  9992,2 53895  53.2184  41.1030 0001098 106.8203 253.2910 15.08832480 55508,6917.903,95.438,540.528,539.009,0.0
53895.0,STARLINK-5032,PAYLOAD,2023-09-22 12:47:17,15.08831355,0.0001078,53.2183,40.5078,106.9263,253.1847,7.5104e-05,9.07e-06,0.0,0 STARLINK-5032,1 53895U 22119K   23265.53284327  .00000907  00000-0  75104-4 0  9994,2 53895  53.2183  40.5078 0001078 106.9263 253.1847 15.08831355 55943,6917.907,95.438,540.518,539.026,0.0
53895.0,STARLINK-5032,PAYLOAD,2023-09-22 15:58:03,15.08838583,8.12e-05,53.2181,39.914,89.8372,270.2713,0.0001079,1.43e-05,0.0,0 STARLINK-5032,1 53895U 22119K   23265.66531827  .00001430  00000-0  10790-3 0  9999,2 53895  53.2181  39.9140 0000812  89.8372 270.2713 15.08838583 55962,6917.885,95.438,540.311,539.188,0.0
53895.0,STARLINK-5032,PAYLOAD,2023-09-23 12:38:04,15.08843834,9.51e-05,53.2188,36.0482,87.2159,272.8942,-8.0118e-05,-1.563e-05,0.0,0 STARLINK-5032,1 53895U 22119K   23266.52644312 -.00001563  00000-0 -80118-4 0  9990,2 53895  53.2188  36.0482 0000951  87.2159 272.8942 15.08843834 55670,6917.869,95.437,540.392,539.076,0.0
53895.0,STARLINK-5032,PAYLOAD,2023-09-23 15:48:50,15.08848428,0.000108,53.2193,35.456,101.3143,258.797,-1.954e-05,-5.99e-06,0.0,0 STARLINK-5032,1 53895U 22119K   23266.65891697 -.00000599  00000-0 -19540-4 0  9993,2 53895  53.2193  35.4560 0001080 101.3143 258.7970 15.08848428 55691,6917.855,95.437,540.467,538.972,0.0
53895.0,STARLINK-5032,PAYLOAD,2023-09-24 09:18:05,15.08832626,9.3e-05,53.2186,32.1834,77.8213,282.2883,-1.5168e-05,-5.29e-06,0.0,0 STARLINK-5032,1 53895U 22119K   23267.38756599 -.00000529  00000-0 -15168-4 0  9990,2 53895  53.2186  32.1834 0000930  77.8213 282.2883 15.08832626 55800,6917.903,95.438,540.411,539.125,0.0
53895.0,STARLINK-5032,PAYLOAD,2023-09-24 14:04:14,15.08843406,0.0001031,53.2186,31.29,81.6197,278.4912,-5.1534e-06,-3.7e-06,0.0,0 STARLINK-5032,1 53895U 22119K   23267.58627971 -.00000370  00000-0 -51534-5 0  9995,2 53895  53.2186  31.2900 0001031  81.6197 278.4912 15.08843406 56259,6917.87,95.437,540.448,539.022,0.0
